[
  {
    "COMMENT": "GENERATED VIA SPACETRACK.ORG API",
    "ORIGINATOR": "18 SPCS",
    "NORAD_CAT_ID": "20436",
    "OBJECT_NAME": "SPOT 2",
    "OBJECT_TYPE": "PAYLOAD",
    "CLASSIFICATION_TYPE": "U",
    "INTLDES": "90005A",
    "EPOCH": "2023-04-15 21:35:52",
    "EPOCH_MICROSECONDS": "949760",
    "MEAN_MOTION": "14.67902303",
    "ECCENTRICITY": "0.0143006",
    "INCLINATION": "98.6669",
    "RA_OF_ASC_NODE": "173.5493",
    "ARG_OF_PERICENTER": "117.8647",
    "MEAN_ANOMALY": "243.7128",
    "EPHEMERIS_TYPE": "0",
    "ELEMENT_SET_NO": "999",
    "REV_AT_EPOCH": "74503",
    "BSTAR": "0.00047142",
    "MEAN_MOTION_DOT": "0.00003086",
    "MEAN_MOTION_DDOT": "0",
    "FILE": "3888171",
    "TLE_LINE0": "0 SPOT 2",
    "TLE_LINE1": "1 20436U 90005A   23105.89991840  .00003086  00000-0  47142-3 0  9996",
    "TLE_LINE2": "2 20436  98.6669 173.5493 0143006 117.8647 243.7128 14.67902303745032",
    "OBJECT_ID": "1990-005A",
    "OBJECT_NUMBER": "20436",
    "SEMIMAJOR_AXIS": "7045.910",
    "PERIOD": "98.099",
    "APOGEE": "768.535",
    "PERIGEE": "567.014",
    "DECAYED": "0"
  },
  {
    "COMMENT": "GENERATED VIA SPACETRACK.ORG API",
    "ORIGINATOR": "18 SPCS",
    "NORAD_CAT_ID": "20436",
    "OBJECT_NAME": "SPOT 2",
    "OBJECT_TYPE": "PAYLOAD",
    "CLASSIFICATION_TYPE": "U",
    "INTLDES": "90005A",
    "EPOCH": "2023-04-16 05:46:40",
    "EPOCH_MICROSECONDS": "274688",
    "MEAN_MOTION": "14.67904423",
    "ECCENTRICITY": "0.0142993",
    "INCLINATION": "98.6669",
    "RA_OF_ASC_NODE": "173.9101",
    "ARG_OF_PERICENTER": "116.8127",
    "MEAN_ANOMALY": "244.7782",
    "EPHEMERIS_TYPE": "0",
    "ELEMENT_SET_NO": "999",
    "REV_AT_EPOCH": "74508",
    "BSTAR": "0.00047136",
    "MEAN_MOTION_DOT": "0.00003085",
    "MEAN_MOTION_DDOT": "0",
    "FILE": "3888626",
    "TLE_LINE0": "0 SPOT 2",
    "TLE_LINE1": "1 20436U 90005A   23106.24074392  .00003085  00000-0  47136-3 0  9992",
    "TLE_LINE2": "2 20436  98.6669 173.9101 0142993 116.8127 244.7782 14.67904423745085",
    "OBJECT_ID": "1990-005A",
    "OBJECT_NUMBER": "20436",
    "SEMIMAJOR_AXIS": "7045.903",
    "PERIOD": "98.099",
    "APOGEE": "768.519",
    "PERIGEE": "567.016",
    "DECAYED": "0"
  },
  {
    "COMMENT": "GENERATED VIA SPACETRACK.ORG API",
    "ORIGINATOR": "18 SPCS",
    "NORAD_CAT_ID": "20436",
    "OBJECT_NAME": "SPOT 2",
    "OBJECT_TYPE": "PAYLOAD",
    "CLASSIFICATION_TYPE": "U",
    "INTLDES": "90005A",
    "EPOCH": "2023-04-16 18:51:55",
    "EPOCH_MICROSECONDS": "886400",
    "MEAN_MOTION": "14.67908116",
    "ECCENTRICITY": "0.0143002",
    "INCLINATION": "98.6667",
    "RA_OF_ASC_NODE": "174.4874",
    "ARG_OF_PERICENTER": "115.1276",
    "MEAN_ANOMALY": "246.4841",
    "EPHEMERIS_TYPE": "0",
    "ELEMENT_SET_NO": "999",
    "REV_AT_EPOCH": "74516",
    "BSTAR": "0.00048555",
    "MEAN_MOTION_DOT": "0.0000318",
    "MEAN_MOTION_DDOT": "0",
    "FILE": "3888799",
    "TLE_LINE0": "0 SPOT 2",
    "TLE_LINE1": "1 20436U 90005A   23106.78606350  .00003180  00000-0  48555-3 0  9998",
    "TLE_LINE2": "2 20436  98.6667 174.4874 0143002 115.1276 246.4841 14.67908116745162",
    "OBJECT_ID": "1990-005A",
    "OBJECT_NUMBER": "20436",
    "SEMIMAJOR_AXIS": "7045.891",
    "PERIOD": "98.099",
    "APOGEE": "768.514",
    "PERIGEE": "566.998",
    "DECAYED": "0"
  },
  {
    "COMMENT": "GENERATED VIA SPACETRACK.ORG API",
    "ORIGINATOR": "18 SPCS",
    "NORAD_CAT_ID": "20436",
    "OBJECT_NAME": "SPOT 2",
    "OBJECT_TYPE": "PAYLOAD",
    "CLASSIFICATION_TYPE": "U",
    "INTLDES": "90005A",
    "EPOCH": "2023-04-17 06:19:01",
    "EPOCH_MICROSECONDS": "945344",
    "MEAN_MOTION": "14.67910884",
    "ECCENTRICITY": "0.0142993",
    "INCLINATION": "98.6666",
    "RA_OF_ASC_NODE": "174.9925",
    "ARG_OF_PERICENTER": "113.6503",
    "MEAN_ANOMALY": "247.9784",
    "EPHEMERIS_TYPE": "0",
    "ELEMENT_SET_NO": "999",
    "REV_AT_EPOCH": "74523",
    "BSTAR": "0.00047446",
    "MEAN_MOTION_DOT": "0.00003106",
    "MEAN_MOTION_DDOT": "0",
    "FILE": "3889215",
    "TLE_LINE0": "0 SPOT 2",
    "TLE_LINE1": "1 20436U 90005A   23107.26321696  .00003106  00000-0  47446-3 0  9995",
    "TLE_LINE2": "2 20436  98.6666 174.9925 0142993 113.6503 247.9784 14.67910884745232",
    "OBJECT_ID": "1990-005A",
    "OBJECT_NUMBER": "20436",
    "SEMIMAJOR_AXIS": "7045.882",
    "PERIOD": "98.099",
    "APOGEE": "768.498",
    "PERIGEE": "566.996",
    "DECAYED": "0"
  },
  {
    "COMMENT": "GENERATED VIA SPACETRACK.ORG API",
    "ORIGINATOR": "18 SPCS",
    "NORAD_CAT_ID": "20436",
    "OBJECT_NAME": "SPOT 2",
    "OBJECT_TYPE": "PAYLOAD",
    "CLASSIFICATION_TYPE": "U",
    "INTLDES": "90005A",
    "EPOCH": "2023-04-17 19:24:17",
    "EPOCH_MICROSECONDS": "292672",
    "MEAN_MOTION": "14.67914746",
    "ECCENTRICITY": "0.0143008",
    "INCLINATION": "98.6664",
    "RA_OF_ASC_NODE": "175.5698",
    "ARG_OF_PERICENTER": "111.9612",
    "MEAN_ANOMALY": "249.686",
    "EPHEMERIS_TYPE": "0",
    "ELEMENT_SET_NO": "999",
    "REV_AT_EPOCH": "74531",
    "BSTAR": "0.00048818",
    "MEAN_MOTION_DOT": "0.00003199",
    "MEAN_MOTION_DDOT": "0",
    "FILE": "3889391",
    "TLE_LINE0": "0 SPOT 2",
    "TLE_LINE1": "1 20436U 90005A   23107.80853348  .00003199  00000-0  48818-3 0  9995",
    "TLE_LINE2": "2 20436  98.6664 175.5698 0143008 111.9612 249.6860 14.67914746745318",
    "OBJECT_ID": "1990-005A",
    "OBJECT_NUMBER": "20436",
    "SEMIMAJOR_AXIS": "7045.870",
    "PERIOD": "98.098",
    "APOGEE": "768.496",
    "PERIGEE": "566.973",
    "DECAYED": "0"
  },
  {
    "COMMENT": "GENERATED VIA SPACETRACK.ORG API",
    "ORIGINATOR": "18 SPCS",
    "NORAD_CAT_ID": "20436",
    "OBJECT_NAME": "SPOT 2",
    "OBJECT_TYPE": "PAYLOAD",
    "CLASSIFICATION_TYPE": "U",
    "INTLDES": "90005A",
    "EPOCH": "2023-04-18 05:13:13",
    "EPOCH_MICROSECONDS": "712448",
    "MEAN_MOTION": "14.67917155",
    "ECCENTRICITY": "0.014299",
    "INCLINATION": "98.6664",
    "RA_OF_ASC_NODE": "176.0028",
    "ARG_OF_PERICENTER": "110.7058",
    "MEAN_ANOMALY": "250.9539",
    "EPHEMERIS_TYPE": "0",
    "ELEMENT_SET_NO": "999",
    "REV_AT_EPOCH": "74537",
    "BSTAR": "0.00047079",
    "MEAN_MOTION_DOT": "0.00003082",
    "MEAN_MOTION_DDOT": "0",
    "FILE": "3889684",
    "TLE_LINE0": "0 SPOT 2",
    "TLE_LINE1": "1 20436U 90005A   23108.21751982  .00003082  00000-0  47079-3 0  9991",
    "TLE_LINE2": "2 20436  98.6664 176.0028 0142990 110.7058 250.9539 14.67917155745372",
    "OBJECT_ID": "1990-005A",
    "OBJECT_NUMBER": "20436",
    "SEMIMAJOR_AXIS": "7045.862",
    "PERIOD": "98.098",
    "APOGEE": "768.476",
    "PERIGEE": "566.978",
    "DECAYED": "0"
  },
  {
    "COMMENT": "GENERATED VIA SPACETRACK.ORG API",
    "ORIGINATOR": "18 SPCS",
    "NORAD_CAT_ID": "20436",
    "OBJECT_NAME": "SPOT 2",
    "OBJECT_TYPE": "PAYLOAD",
    "CLASSIFICATION_TYPE": "U",
    "INTLDES": "90005A",
    "EPOCH": "2023-04-18 21:34:47",
    "EPOCH_MICROSECONDS": "558784",
    "MEAN_MOTION": "14.67922489",
    "ECCENTRICITY": "0.014302",
    "INCLINATION": "98.6663",
    "RA_OF_ASC_NODE": "176.7245",
    "ARG_OF_PERICENTER": "108.595",
    "MEAN_ANOMALY": "253.0847",
    "EPHEMERIS_TYPE": "0",
    "ELEMENT_SET_NO": "999",
    "REV_AT_EPOCH": "74547",
    "BSTAR": "0.00051625",
    "MEAN_MOTION_DOT": "0.00003387",
    "MEAN_MOTION_DDOT": "0",
    "FILE": "3889987",
    "TLE_LINE0": "0 SPOT 2",
    "TLE_LINE1": "1 20436U 90005A   23108.89916156  .00003387  00000-0  51625-3 0  9991",
    "TLE_LINE2": "2 20436  98.6663 176.7245 0143020 108.5950 253.0847 14.67922489745473",
    "OBJECT_ID": "1990-005A",
    "OBJECT_NUMBER": "20436",
    "SEMIMAJOR_AXIS": "7045.845",
    "PERIOD": "98.098",
    "APOGEE": "768.480",
    "PERIGEE": "566.940",
    "DECAYED": "0"
  },
  {
    "COMMENT": "GENERATED VIA SPACETRACK.ORG API",
    "ORIGINATOR": "18 SPCS",
    "NORAD_CAT_ID": "20436",
    "OBJECT_NAME": "SPOT 2",
    "OBJECT_TYPE": "PAYLOAD",
    "CLASSIFICATION_TYPE": "U",
    "INTLDES": "90005A",
    "EPOCH": "2023-04-19 04:07:25",
    "EPOCH_MICROSECONDS": "46688",
    "MEAN_MOTION": "14.67924643",
    "ECCENTRICITY": "0.0142996",
    "INCLINATION": "98.6664",
    "RA_OF_ASC_NODE": "177.013",
    "ARG_OF_PERICENTER": "107.7541",
    "MEAN_ANOMALY": "253.9326",
    "EPHEMERIS_TYPE": "0",
    "ELEMENT_SET_NO": "999",
    "REV_AT_EPOCH": "74551",
    "BSTAR": "0.00053649",
    "MEAN_MOTION_DOT": "0.00003522",
    "MEAN_MOTION_DDOT": "0",
    "FILE": "3890383",
    "TLE_LINE0": "0 SPOT 2",
    "TLE_LINE1": "1 20436U 90005A   23109.17181767  .00003522  00000-0  53649-3 0  9994",
    "TLE_LINE2": "2 20436  98.6664 177.0130 0142996 107.7541 253.9326 14.67924643745519",
    "OBJECT_ID": "1990-005A",
    "OBJECT_NUMBER": "20436",
    "SEMIMAJOR_AXIS": "7045.838",
    "PERIOD": "98.098",
    "APOGEE": "768.456",
    "PERIGEE": "566.951",
    "DECAYED": "0"
  },
  {
    "COMMENT": "GENERATED VIA SPACETRACK.ORG API",
    "ORIGINATOR": "18 SPCS",
    "NORAD_CAT_ID": "20436",
    "OBJECT_NAME": "SPOT 2",
    "OBJECT_TYPE": "PAYLOAD",
    "CLASSIFICATION_TYPE": "U",
    "INTLDES": "90005A",
    "EPOCH": "2023-04-19 22:07:07",
    "EPOCH_MICROSECONDS": "948128",
    "MEAN_MOTION": "14.67929341",
    "ECCENTRICITY": "0.014297",
    "INCLINATION": "98.6661",
    "RA_OF_ASC_NODE": "177.8068",
    "ARG_OF_PERICENTER": "105.4392",
    "MEAN_ANOMALY": "256.2654",
    "EPHEMERIS_TYPE": "0",
    "ELEMENT_SET_NO": "999",
    "REV_AT_EPOCH": "74562",
    "BSTAR": "0.00052043",
    "MEAN_MOTION_DOT": "0.00003415",
    "MEAN_MOTION_DDOT": "0",
    "FILE": "3890520",
    "TLE_LINE0": "0 SPOT 2",
    "TLE_LINE1": "1 20436U 90005A   23109.92161977  .00003415  00000-0  52043-3 0  9996",
    "TLE_LINE2": "2 20436  98.6661 177.8068 0142970 105.4392 256.2654 14.67929341745627",
    "OBJECT_ID": "1990-005A",
    "OBJECT_NUMBER": "20436",
    "SEMIMAJOR_AXIS": "7045.823",
    "PERIOD": "98.097",
    "APOGEE": "768.422",
    "PERIGEE": "566.954",
    "DECAYED": "0"
  }
]